{"fetched_at":"2026-07-05T16:24:32.960Z","source":"https://celestrak.org/NORAD/elements/gp.php?NAME=JILIN&FORMAT=JSON","constellation":"jilin-1-kuanfu","records":[{"OBJECT_NAME":"JILIN-1 KUANFU 01","OBJECT_ID":"2020-003A","EPOCH":"2026-07-05T04:02:39.806592","CLASSIFICATION_TYPE":"U","MEAN_MOTION":15.1082803,"ECCENTRICITY":0.00085025,"INCLINATION":97.5015,"RA_OF_ASC_NODE":259.7735,"ARG_OF_PERICENTER":234.7475,"MEAN_ANOMALY":125.296,"EPHEMERIS_TYPE":0,"NORAD_CAT_ID":45016,"ELEMENT_SET_NO":999,"REV_AT_EPOCH":35804,"BSTAR":0.00029116289,"MEAN_MOTION_DOT":0.0000478,"MEAN_MOTION_DDOT":0},{"OBJECT_NAME":"JILIN-1 KUANFU-01B","OBJECT_ID":"2021-061A","EPOCH":"2026-07-05T06:23:47.570784","CLASSIFICATION_TYPE":"U","MEAN_MOTION":15.09775548,"ECCENTRICITY":0.00068957,"INCLINATION":97.5204,"RA_OF_ASC_NODE":262.1259,"ARG_OF_PERICENTER":13.8076,"MEAN_ANOMALY":346.3341,"EPHEMERIS_TYPE":0,"NORAD_CAT_ID":49003,"ELEMENT_SET_NO":999,"REV_AT_EPOCH":27607,"BSTAR":0.0002338187,"MEAN_MOTION_DOT":0.00003714,"MEAN_MOTION_DDOT":0},{"OBJECT_NAME":"JILIN-1 KUANFU 01C","OBJECT_ID":"2022-048A","EPOCH":"2026-07-05T04:34:38.662464","CLASSIFICATION_TYPE":"U","MEAN_MOTION":15.09563914,"ECCENTRICITY":0.00166639,"INCLINATION":97.5246,"RA_OF_ASC_NODE":263.038,"ARG_OF_PERICENTER":256.8812,"MEAN_ANOMALY":103.0557,"EPHEMERIS_TYPE":0,"NORAD_CAT_ID":52443,"ELEMENT_SET_NO":999,"REV_AT_EPOCH":22991,"BSTAR":0.00024764901,"MEAN_MOTION_DOT":0.00003924,"MEAN_MOTION_DDOT":0},{"OBJECT_NAME":"JILIN-1 KUANFU 02A","OBJECT_ID":"2023-127A","EPOCH":"2026-07-05T06:49:18.468192","CLASSIFICATION_TYPE":"U","MEAN_MOTION":15.10757356,"ECCENTRICITY":0.00100319,"INCLINATION":97.5563,"RA_OF_ASC_NODE":279.8737,"ARG_OF_PERICENTER":275.6502,"MEAN_ANOMALY":84.3583,"EPHEMERIS_TYPE":0,"NORAD_CAT_ID":57696,"ELEMENT_SET_NO":999,"REV_AT_EPOCH":15836,"BSTAR":0.00045575386,"MEAN_MOTION_DOT":0.00007507,"MEAN_MOTION_DDOT":0},{"OBJECT_NAME":"JILIN-01 KUANFU 02B 1","OBJECT_ID":"2024-169A","EPOCH":"2026-07-05T06:52:33.032352","CLASSIFICATION_TYPE":"U","MEAN_MOTION":15.09011262,"ECCENTRICITY":0.00024297,"INCLINATION":97.5569,"RA_OF_ASC_NODE":275.529,"ARG_OF_PERICENTER":20.3311,"MEAN_ANOMALY":339.8014,"EPHEMERIS_TYPE":0,"NORAD_CAT_ID":61189,"ELEMENT_SET_NO":999,"REV_AT_EPOCH":9855,"BSTAR":0.00034942417,"MEAN_MOTION_DOT":0.00005464,"MEAN_MOTION_DDOT":0},{"OBJECT_NAME":"JILIN-01 KUANFU 02B 2","OBJECT_ID":"2024-169B","EPOCH":"2026-07-05T06:22:51.123936","CLASSIFICATION_TYPE":"U","MEAN_MOTION":15.08973489,"ECCENTRICITY":0.000529,"INCLINATION":97.5563,"RA_OF_ASC_NODE":274.8947,"ARG_OF_PERICENTER":321.9223,"MEAN_ANOMALY":38.1631,"EPHEMERIS_TYPE":0,"NORAD_CAT_ID":61190,"ELEMENT_SET_NO":999,"REV_AT_EPOCH":9855,"BSTAR":0.00042470907,"MEAN_MOTION_DOT":0.0000665,"MEAN_MOTION_DDOT":0},{"OBJECT_NAME":"JILIN-01 KUANFU 02B 3","OBJECT_ID":"2024-169C","EPOCH":"2026-07-05T06:36:04.388256","CLASSIFICATION_TYPE":"U","MEAN_MOTION":15.09010831,"ECCENTRICITY":0.00124085,"INCLINATION":97.5557,"RA_OF_ASC_NODE":275.3365,"ARG_OF_PERICENTER":242.5589,"MEAN_ANOMALY":117.4378,"EPHEMERIS_TYPE":0,"NORAD_CAT_ID":61191,"ELEMENT_SET_NO":999,"REV_AT_EPOCH":9855,"BSTAR":0.0003971622,"MEAN_MOTION_DOT":0.00006229,"MEAN_MOTION_DDOT":0},{"OBJECT_NAME":"JILIN-01 KUANFU 02B 4","OBJECT_ID":"2024-169D","EPOCH":"2026-07-05T04:15:27.181152","CLASSIFICATION_TYPE":"U","MEAN_MOTION":15.08995574,"ECCENTRICITY":0.00130497,"INCLINATION":97.553,"RA_OF_ASC_NODE":274.7718,"ARG_OF_PERICENTER":196.9096,"MEAN_ANOMALY":163.17,"EPHEMERIS_TYPE":0,"NORAD_CAT_ID":61192,"ELEMENT_SET_NO":999,"REV_AT_EPOCH":9854,"BSTAR":0.00041530851,"MEAN_MOTION_DOT":0.00006515,"MEAN_MOTION_DDOT":0},{"OBJECT_NAME":"JILIN-01 KUANFU 02B 5","OBJECT_ID":"2024-169E","EPOCH":"2026-07-05T07:08:04.433856","CLASSIFICATION_TYPE":"U","MEAN_MOTION":15.09030943,"ECCENTRICITY":0.00122112,"INCLINATION":97.5575,"RA_OF_ASC_NODE":275.68,"ARG_OF_PERICENTER":221.8567,"MEAN_ANOMALY":138.1729,"EPHEMERIS_TYPE":0,"NORAD_CAT_ID":61193,"ELEMENT_SET_NO":999,"REV_AT_EPOCH":9856,"BSTAR":0.00036100074,"MEAN_MOTION_DOT":0.00005659,"MEAN_MOTION_DDOT":0},{"OBJECT_NAME":"JILIN-01 KUANFU 02B 6","OBJECT_ID":"2024-169F","EPOCH":"2026-07-05T04:30:45.769536","CLASSIFICATION_TYPE":"U","MEAN_MOTION":15.08991224,"ECCENTRICITY":0.00150478,"INCLINATION":97.5557,"RA_OF_ASC_NODE":275.4679,"ARG_OF_PERICENTER":258.3301,"MEAN_ANOMALY":101.6239,"EPHEMERIS_TYPE":0,"NORAD_CAT_ID":61194,"ELEMENT_SET_NO":999,"REV_AT_EPOCH":9855,"BSTAR":0.0004052841,"MEAN_MOTION_DOT":0.0000636,"MEAN_MOTION_DDOT":0}]}
