JILIN-1 KUANFU 01       
1 45016U 20003A   26186.16851628  .00004780  00000+0  29116-3 0  9991
2 45016  97.5015 259.7735 0008502 234.7475 125.2960 15.10828030358043
JILIN-1 KUANFU-01B      
1 49003U 21061A   26186.26652281  .00003714  00000+0  23382-3 0  9996
2 49003  97.5204 262.1259 0006895  13.8076 346.3341 15.09775548276072
JILIN-1 KUANFU 01C      
1 52443U 22048A   26186.19072526  .00003924  00000+0  24765-3 0  9993
2 52443  97.5246 263.0380 0016663 256.8812 103.0557 15.09563914229916
JILIN-1 KUANFU 02A      
1 57696U 23127A   26186.28424153  .00007507  00000+0  45575-3 0  9997
2 57696  97.5563 279.8737 0010031 275.6502  84.3583 15.10757356158369
JILIN-01 KUANFU 02B 1   
1 61189U 24169A   26186.28649343  .00005464  00000+0  34942-3 0  9992
2 61189  97.5569 275.5290 0002429  20.3311 339.8014 15.09011262 98557
JILIN-01 KUANFU 02B 2   
1 61190U 24169B   26186.26586949  .00006650  00000+0  42471-3 0  9998
2 61190  97.5563 274.8947 0005290 321.9223  38.1631 15.08973489 98556
JILIN-01 KUANFU 02B 3   
1 61191U 24169C   26186.27505079  .00006229  00000+0  39716-3 0  9995
2 61191  97.5557 275.3365 0012408 242.5589 117.4378 15.09010831 98555
JILIN-01 KUANFU 02B 4   
1 61192U 24169D   26186.17739793  .00006515  00000+0  41531-3 0  9993
2 61192  97.5530 274.7718 0013049 196.9096 163.1700 15.08995574 98540
JILIN-01 KUANFU 02B 5   
1 61193U 24169E   26186.29727354  .00005659  00000+0  36100-3 0  9991
2 61193  97.5575 275.6800 0012211 221.8567 138.1729 15.09030943 98569
JILIN-01 KUANFU 02B 6   
1 61194U 24169F   26186.18802974  .00006360  00000+0  40528-3 0  9991
2 61194  97.5557 275.4679 0015047 258.3301 101.6239 15.08991224 98550
